start=new Date('2021-11-04T00:00:00.000Z').valueOf();
sats=[{"APOAPSIS":"547.993","TLE_LINE1":"1 45549U 20025U   21307.60213575  .00001107  00000-0  93224-4 0  9991","RA_OF_ASC_NODE":"31.3350","GP_ID":"188856421","SITE":"AFETR","TLE_LINE2":"2 45549  53.0548  31.3350 0001128  76.6928 283.4186 15.06400534 85877","RCS_SIZE":"LARGE","EPHEMERIS_TYPE":"0","PERIOD":"95.592","TIME_SYSTEM":"UTC","NORAD_CAT_ID":"45549","BSTAR":"0.00009322400000","ARG_OF_PERICENTER":"76.6928","COUNTRY_CODE":"US","MEAN_ELEMENT_THEORY":"SGP4","CENTER_NAME":"EARTH","FILE":"3200165","MEAN_MOTION":"15.06400534","OBJECT_NAME":"STARLINK-1379","DECAY_DATE":null,"OBJECT_ID":"2020-025U","CLASSIFICATION_TYPE":"U","MEAN_MOTION_DOT":"0.00001107","REF_FRAME":"TEME","REV_AT_EPOCH":"8587","EPOCH":"2021-11-03T14:27:04.528800","ELEMENT_SET_NO":"999","OBJECT_TYPE":"PAYLOAD","SEMIMAJOR_AXIS":"6925.347","INCLINATION":"53.0548","PERIAPSIS":"546.431","MEAN_MOTION_DDOT":"0.0000000000000","LAUNCH_DATE":"2020-04-22","MEAN_ANOMALY":"283.4186","ECCENTRICITY":"0.00011280"},{"EPOCH":"2021-11-03T11:35:51.603360","ELEMENT_SET_NO":"999","INCLINATION":"53.0573","SEMIMAJOR_AXIS":"6925.366","OBJECT_TYPE":"PAYLOAD","MEAN_MOTION_DOT":"-0.00001059","REF_FRAME":"TEME","REV_AT_EPOCH":"8585","LAUNCH_DATE":"2020-04-22","MEAN_ANOMALY":"288.9530","ECCENTRICITY":"0.00014640","PERIAPSIS":"546.217","MEAN_MOTION_DDOT":"0.0000000000000","TIME_SYSTEM":"UTC","TLE_LINE1":"1 45550U 20025V   21307.48323615 -.00001059  00000-0 -52237-4 0  9993","APOAPSIS":"548.244","RA_OF_ASC_NODE":"31.8725","TLE_LINE2":"2 45550  53.0573  31.8725 0001464  71.1618 288.9530 15.06394448 85854","RCS_SIZE":"LARGE","SITE":"AFETR","GP_ID":"188826399","PERIOD":"95.592","EPHEMERIS_TYPE":"0","MEAN_MOTION":"15.06394448","FILE":"3199758","DECAY_DATE":null,"OBJECT_NAME":"STARLINK-1390","OBJECT_ID":"2020-025V","CLASSIFICATION_TYPE":"U","BSTAR":"-0.00005223700000","ARG_OF_PERICENTER":"71.1618","NORAD_CAT_ID":"45550","COUNTRY_CODE":"US","CENTER_NAME":"EARTH","MEAN_ELEMENT_THEORY":"SGP4"},{"INCLINATION":"53.0548","SEMIMAJOR_AXIS":"6925.387","OBJECT_TYPE":"PAYLOAD","EPOCH":"2021-11-03T16:26:31.440768","ELEMENT_SET_NO":"999","REV_AT_EPOCH":"8617","MEAN_MOTION_DOT":"-0.00000376","REF_FRAME":"TEME","ECCENTRICITY":"0.00012450","LAUNCH_DATE":"2020-04-22","MEAN_ANOMALY":"282.4470","PERIAPSIS":"546.389","MEAN_MOTION_DDOT":"0.0000000000000","TIME_SYSTEM":"UTC","TLE_LINE2":"2 45551  53.0548  10.9722 0001245  77.6658 282.4470 15.06387620 86176","RCS_SIZE":"LARGE","GP_ID":"188857924","SITE":"AFETR","PERIOD":"95.593","EPHEMERIS_TYPE":"0","TLE_LINE1":"1 45551U 20025W   21307.68508612 -.00000376  00000-0 -63411-5 0  9996","APOAPSIS":"548.114","RA_OF_ASC_NODE":"10.9722","DECAY_DATE":null,"OBJECT_NAME":"STARLINK-1294","CLASSIFICATION_TYPE":"U","OBJECT_ID":"2020-025W","FILE":"3200165","MEAN_MOTION":"15.06387620","MEAN_ELEMENT_THEORY":"SGP4","COUNTRY_CODE":"US","CENTER_NAME":"EARTH","BSTAR":"-0.00000634110000","ARG_OF_PERICENTER":"77.6658","NORAD_CAT_ID":"45551"},{"OBJECT_NAME":"STARLINK-1322","DECAY_DATE":null,"CLASSIFICATION_TYPE":"U","OBJECT_ID":"2020-025X","FILE":"3199758","MEAN_MOTION":"15.33512070","COUNTRY_CODE":"US","CENTER_NAME":"EARTH","MEAN_ELEMENT_THEORY":"SGP4","ARG_OF_PERICENTER":"133.7605","BSTAR":"0.00421700000000","NORAD_CAT_ID":"45552","TIME_SYSTEM":"UTC","TLE_LINE2":"2 45552  53.0586   6.0169 0001741 133.7605 226.3541 15.33512070 86217","RCS_SIZE":"LARGE","GP_ID":"188825418","SITE":"AFETR","PERIOD":"93.902","EPHEMERIS_TYPE":"0","APOAPSIS":"466.537","TLE_LINE1":"1 45552U 20025X   21307.43874843  .00140792  00000-0  42170-2 0  9993","RA_OF_ASC_NODE":"6.0169","ECCENTRICITY":"0.00017410","LAUNCH_DATE":"2020-04-22","MEAN_ANOMALY":"226.3541","PERIAPSIS":"464.154","MEAN_MOTION_DDOT":"0.0000000000000","INCLINATION":"53.0586","SEMIMAJOR_AXIS":"6843.481","OBJECT_TYPE":"PAYLOAD","EPOCH":"2021-11-03T10:31:47.864352","ELEMENT_SET_NO":"999","REV_AT_EPOCH":"8621","REF_FRAME":"TEME","MEAN_MOTION_DOT":"0.00140792"},{"LAUNCH_DATE":"2020-04-22","MEAN_ANOMALY":"269.4383","ECCENTRICITY":"0.00013480","PERIAPSIS":"546.273","MEAN_MOTION_DDOT":"0.0000000000000","EPOCH":"2021-11-03T13:31:20.959392","ELEMENT_SET_NO":"999","OBJECT_TYPE":"PAYLOAD","SEMIMAJOR_AXIS":"6925.341","INCLINATION":"53.0565","REF_FRAME":"TEME","MEAN_MOTION_DOT":"0.00000184","REV_AT_EPOCH":"8486","MEAN_MOTION":"15.06402310","FILE":"3200165","OBJECT_NAME":"STARLINK-1323","DECAY_DATE":null,"CLASSIFICATION_TYPE":"U","OBJECT_ID":"2020-025Y","NORAD_CAT_ID":"45553","BSTAR":"0.00003122600000","ARG_OF_PERICENTER":"90.6760","COUNTRY_CODE":"US","MEAN_ELEMENT_THEORY":"SGP4","CENTER_NAME":"EARTH","TIME_SYSTEM":"UTC","TLE_LINE1":"1 45553U 20025Y   21307.56343703  .00000184  00000-0  31226-4 0  9996","APOAPSIS":"548.140","RA_OF_ASC_NODE":"11.5138","SITE":"AFETR","GP_ID":"188856922","RCS_SIZE":"LARGE","TLE_LINE2":"2 45553  53.0565  11.5138 0001348  90.6760 269.4383 15.06402310 84864","PERIOD":"95.592","EPHEMERIS_TYPE":"0"},{"PERIOD":"95.592","EPHEMERIS_TYPE":"0","GP_ID":"188826899","SITE":"AFETR","RCS_SIZE":"LARGE","TLE_LINE2":"2 45554  53.0547  11.8481 0001326  86.0551 274.0590 15.06397164 86147","RA_OF_ASC_NODE":"11.8481","APOAPSIS":"548.141","TLE_LINE1":"1 45554U 20025Z   21307.48971790  .00001391  00000-0  11225-3 0  9998","TIME_SYSTEM":"UTC","MEAN_ELEMENT_THEORY":"SGP4","COUNTRY_CODE":"US","CENTER_NAME":"EARTH","NORAD_CAT_ID":"45554","ARG_OF_PERICENTER":"86.0551","BSTAR":"0.00011225000000","CLASSIFICATION_TYPE":"U","OBJECT_ID":"2020-025Z","DECAY_DATE":null,"OBJECT_NAME":"STARLINK-1325","MEAN_MOTION":"15.06397164","FILE":"3199758","REV_AT_EPOCH":"8614","MEAN_MOTION_DOT":"0.00001391","REF_FRAME":"TEME","OBJECT_TYPE":"PAYLOAD","SEMIMAJOR_AXIS":"6925.357","INCLINATION":"53.0547","ELEMENT_SET_NO":"999","EPOCH":"2021-11-03T11:45:11.626560","MEAN_MOTION_DDOT":"0.0000000000000","PERIAPSIS":"546.304","ECCENTRICITY":"0.00013260","MEAN_ANOMALY":"274.0590","LAUNCH_DATE":"2020-04-22"},{"NORAD_CAT_ID":"45555","BSTAR":"0.00015683000000","ARG_OF_PERICENTER":"71.0810","CENTER_NAME":"EARTH","COUNTRY_CODE":"US","MEAN_ELEMENT_THEORY":"SGP4","MEAN_MOTION":"15.06401322","FILE":"3200165","OBJECT_ID":"2020-025AA","CLASSIFICATION_TYPE":"U","OBJECT_NAME":"STARLINK-1327","DECAY_DATE":null,"RA_OF_ASC_NODE":"11.4180","APOAPSIS":"548.068","TLE_LINE1":"1 45555U 20025AA  21307.58556106  .00002055  00000-0  15683-3 0  9990","EPHEMERIS_TYPE":"0","PERIOD":"95.592","GP_ID":"188857424","SITE":"AFETR","TLE_LINE2":"2 45555  53.0549  11.4180 0001240  71.0810 289.0313 15.06401322 86151","RCS_SIZE":"LARGE","TIME_SYSTEM":"UTC","MEAN_MOTION_DDOT":"0.0000000000000","PERIAPSIS":"546.351","MEAN_ANOMALY":"289.0313","LAUNCH_DATE":"2020-04-22","ECCENTRICITY":"0.00012400","REF_FRAME":"TEME","MEAN_MOTION_DOT":"0.00002055","REV_AT_EPOCH":"8615","ELEMENT_SET_NO":"999","EPOCH":"2021-11-03T14:03:12.475584","OBJECT_TYPE":"PAYLOAD","SEMIMAJOR_AXIS":"6925.345","INCLINATION":"53.0549"},{"ARG_OF_PERICENTER":"79.7136","BSTAR":"0.00014513000000","NORAD_CAT_ID":"45556","CENTER_NAME":"EARTH","COUNTRY_CODE":"US","MEAN_ELEMENT_THEORY":"SGP4","FILE":"3199758","MEAN_MOTION":"15.06401446","OBJECT_NAME":"STARLINK-1334","DECAY_DATE":null,"CLASSIFICATION_TYPE":"U","OBJECT_ID":"2020-025AB","TLE_LINE1":"1 45556U 20025AB  21307.49340043  .00001881  00000-0  14513-3 0  9999","APOAPSIS":"548.109","RA_OF_ASC_NODE":"11.8301","TLE_LINE2":"2 45556  53.0562  11.8301 0001300  79.7136 280.3999 15.06401446 86149","RCS_SIZE":"LARGE","GP_ID":"188825918","SITE":"AFETR","EPHEMERIS_TYPE":"0","PERIOD":"95.592","TIME_SYSTEM":"UTC","PERIAPSIS":"546.309","MEAN_MOTION_DDOT":"0.0000000000000","LAUNCH_DATE":"2020-04-22","MEAN_ANOMALY":"280.3999","ECCENTRICITY":"0.00013000","REF_FRAME":"TEME","MEAN_MOTION_DOT":"0.00001881","REV_AT_EPOCH":"8614","EPOCH":"2021-11-03T11:50:29.797152","ELEMENT_SET_NO":"999","INCLINATION":"53.0562","OBJECT_TYPE":"PAYLOAD","SEMIMAJOR_AXIS":"6925.344"},{"LAUNCH_DATE":"2020-04-22","MEAN_ANOMALY":"273.7602","ECCENTRICITY":"0.00010560","PERIAPSIS":"546.500","MEAN_MOTION_DDOT":"0.0000000000000","EPOCH":"2021-11-03T16:47:44.561184","ELEMENT_SET_NO":"999","INCLINATION":"53.0538","OBJECT_TYPE":"PAYLOAD","SEMIMAJOR_AXIS":"6925.366","REF_FRAME":"TEME","MEAN_MOTION_DOT":"-0.00000003","REV_AT_EPOCH":"8617","FILE":"3200165","MEAN_MOTION":"15.06394302","DECAY_DATE":null,"OBJECT_NAME":"STARLINK-1336","CLASSIFICATION_TYPE":"U","OBJECT_ID":"2020-025AC","BSTAR":"0.00001869000000","ARG_OF_PERICENTER":"86.3508","NORAD_CAT_ID":"45557","CENTER_NAME":"EARTH","COUNTRY_CODE":"US","MEAN_ELEMENT_THEORY":"SGP4","TIME_SYSTEM":"UTC","TLE_LINE1":"1 45557U 20025AC  21307.69982131 -.00000003  00000-0  18690-4 0  9999","APOAPSIS":"547.962","RA_OF_ASC_NODE":"10.9030","TLE_LINE2":"2 45557  53.0538  10.9030 0001056  86.3508 273.7602 15.06394302 86179","RCS_SIZE":"LARGE","GP_ID":"188856422","SITE":"AFETR","EPHEMERIS_TYPE":"0","PERIOD":"95.593"},{"REV_AT_EPOCH":"8616","MEAN_MOTION_DOT":"-0.00001340","REF_FRAME":"TEME","SEMIMAJOR_AXIS":"6925.380","OBJECT_TYPE":"PAYLOAD","INCLINATION":"53.0559","ELEMENT_SET_NO":"999","EPOCH":"2021-11-03T15:59:58.835616","MEAN_MOTION_DDOT":"0.0000000000000","PERIAPSIS":"546.351","ECCENTRICITY":"0.00012910","MEAN_ANOMALY":"266.7590","LAUNCH_DATE":"2020-04-22","PERIOD":"95.593","EPHEMERIS_TYPE":"0","GP_ID":"188857674","SITE":"AFETR","RCS_SIZE":"LARGE","TLE_LINE2":"2 45558  53.0559  11.0495 0001291  93.3547 266.7590 15.06389711 86167","RA_OF_ASC_NODE":"11.0495","TLE_LINE1":"1 45558U 20025AD  21307.66665319 -.00001340  00000-0 -71089-4 0  9990","APOAPSIS":"548.139","TIME_SYSTEM":"UTC","COUNTRY_CODE":"US","MEAN_ELEMENT_THEORY":"SGP4","CENTER_NAME":"EARTH","NORAD_CAT_ID":"45558","BSTAR":"-0.00007108900000","ARG_OF_PERICENTER":"93.3547","OBJECT_ID":"2020-025AD","CLASSIFICATION_TYPE":"U","OBJECT_NAME":"STARLINK-1342","DECAY_DATE":null,"MEAN_MOTION":"15.06389711","FILE":"3200165"}];
